[
  {"isoCode":"${record.isoCode}","name":"${record.name.escapeJson()}","dialCode":"${record.dialCode}","flag":"${record.flag.escapeJson()}"},
  {"isoCode":"${record.isoCode}","name":"${record.name.escapeJson()}","dialCode":"${record.dialCode}","flag":"${record.flag.escapeJson()}"},
  {"isoCode":"${record.isoCode}","name":"${record.name.escapeJson()}","dialCode":"${record.dialCode}","flag":"${record.flag.escapeJson()}"},
  {"isoCode":"${record.isoCode}","name":"${record.name.escapeJson()}","dialCode":"${record.dialCode}","flag":"${record.flag.escapeJson()}"},
  {"isoCode":"${record.isoCode}","name":"${record.name.escapeJson()}","dialCode":"${record.dialCode}","flag":"${record.flag.escapeJson()}"},
  {"isoCode":"${record.isoCode}","name":"${record.name.escapeJson()}","dialCode":"${record.dialCode}","flag":"${record.flag.escapeJson()}"},
  {"isoCode":"${record.isoCode}","name":"${record.name.escapeJson()}","dialCode":"${record.dialCode}","flag":"${record.flag.escapeJson()}"},
  {"isoCode":"${record.isoCode}","name":"${record.name.escapeJson()}","dialCode":"${record.dialCode}","flag":"${record.flag.escapeJson()}"},
  {"isoCode":"${record.isoCode}","name":"${record.name.escapeJson()}","dialCode":"${record.dialCode}","flag":"${record.flag.escapeJson()}"},
  {"isoCode":"${record.isoCode}","name":"${record.name.escapeJson()}","dialCode":"${record.dialCode}","flag":"${record.flag.escapeJson()}"},
  {"isoCode":"${record.isoCode}","name":"${record.name.escapeJson()}","dialCode":"${record.dialCode}","flag":"${record.flag.escapeJson()}"},
  {"isoCode":"${record.isoCode}","name":"${record.name.escapeJson()}","dialCode":"${record.dialCode}","flag":"${record.flag.escapeJson()}"},
  {"isoCode":"${record.isoCode}","name":"${record.name.escapeJson()}","dialCode":"${record.dialCode}","flag":"${record.flag.escapeJson()}"},
  {"isoCode":"${record.isoCode}","name":"${record.name.escapeJson()}","dialCode":"${record.dialCode}","flag":"${record.flag.escapeJson()}"},
  {"isoCode":"${record.isoCode}","name":"${record.name.escapeJson()}","dialCode":"${record.dialCode}","flag":"${record.flag.escapeJson()}"},
  {"isoCode":"${record.isoCode}","name":"${record.name.escapeJson()}","dialCode":"${record.dialCode}","flag":"${record.flag.escapeJson()}"},
  {"isoCode":"${record.isoCode}","name":"${record.name.escapeJson()}","dialCode":"${record.dialCode}","flag":"${record.flag.escapeJson()}"},
  {"isoCode":"${record.isoCode}","name":"${record.name.escapeJson()}","dialCode":"${record.dialCode}","flag":"${record.flag.escapeJson()}"},
  {"isoCode":"${record.isoCode}","name":"${record.name.escapeJson()}","dialCode":"${record.dialCode}","flag":"${record.flag.escapeJson()}"},
  {"isoCode":"${record.isoCode}","name":"${record.name.escapeJson()}","dialCode":"${record.dialCode}","flag":"${record.flag.escapeJson()}"},
  {"isoCode":"${record.isoCode}","name":"${record.name.escapeJson()}","dialCode":"${record.dialCode}","flag":"${record.flag.escapeJson()}"},
  {"isoCode":"${record.isoCode}","name":"${record.name.escapeJson()}","dialCode":"${record.dialCode}","flag":"${record.flag.escapeJson()}"},
  {"isoCode":"${record.isoCode}","name":"${record.name.escapeJson()}","dialCode":"${record.dialCode}","flag":"${record.flag.escapeJson()}"},
  {"isoCode":"${record.isoCode}","name":"${record.name.escapeJson()}","dialCode":"${record.dialCode}","flag":"${record.flag.escapeJson()}"},
  {"isoCode":"${record.isoCode}","name":"${record.name.escapeJson()}","dialCode":"${record.dialCode}","flag":"${record.flag.escapeJson()}"},
  {"isoCode":"${record.isoCode}","name":"${record.name.escapeJson()}","dialCode":"${record.dialCode}","flag":"${record.flag.escapeJson()}"},
  {"isoCode":"${record.isoCode}","name":"${record.name.escapeJson()}","dialCode":"${record.dialCode}","flag":"${record.flag.escapeJson()}"},
  {"isoCode":"${record.isoCode}","name":"${record.name.escapeJson()}","dialCode":"${record.dialCode}","flag":"${record.flag.escapeJson()}"},
  {"isoCode":"${record.isoCode}","name":"${record.name.escapeJson()}","dialCode":"${record.dialCode}","flag":"${record.flag.escapeJson()}"},
  {"isoCode":"${record.isoCode}","name":"${record.name.escapeJson()}","dialCode":"${record.dialCode}","flag":"${record.flag.escapeJson()}"},
  {"isoCode":"${record.isoCode}","name":"${record.name.escapeJson()}","dialCode":"${record.dialCode}","flag":"${record.flag.escapeJson()}"},
  {"isoCode":"${record.isoCode}","name":"${record.name.escapeJson()}","dialCode":"${record.dialCode}","flag":"${record.flag.escapeJson()}"},
  {"isoCode":"${record.isoCode}","name":"${record.name.escapeJson()}","dialCode":"${record.dialCode}","flag":"${record.flag.escapeJson()}"},
  {"isoCode":"${record.isoCode}","name":"${record.name.escapeJson()}","dialCode":"${record.dialCode}","flag":"${record.flag.escapeJson()}"},
  {"isoCode":"${record.isoCode}","name":"${record.name.escapeJson()}","dialCode":"${record.dialCode}","flag":"${record.flag.escapeJson()}"},
  {"isoCode":"${record.isoCode}","name":"${record.name.escapeJson()}","dialCode":"${record.dialCode}","flag":"${record.flag.escapeJson()}"},
  {"isoCode":"${record.isoCode}","name":"${record.name.escapeJson()}","dialCode":"${record.dialCode}","flag":"${record.flag.escapeJson()}"},
  {"isoCode":"${record.isoCode}","name":"${record.name.escapeJson()}","dialCode":"${record.dialCode}","flag":"${record.flag.escapeJson()}"},
  {"isoCode":"${record.isoCode}","name":"${record.name.escapeJson()}","dialCode":"${record.dialCode}","flag":"${record.flag.escapeJson()}"},
  {"isoCode":"${record.isoCode}","name":"${record.name.escapeJson()}","dialCode":"${record.dialCode}","flag":"${record.flag.escapeJson()}"},
  {"isoCode":"${record.isoCode}","name":"${record.name.escapeJson()}","dialCode":"${record.dialCode}","flag":"${record.flag.escapeJson()}"},
  {"isoCode":"${record.isoCode}","name":"${record.name.escapeJson()}","dialCode":"${record.dialCode}","flag":"${record.flag.escapeJson()}"},
  {"isoCode":"${record.isoCode}","name":"${record.name.escapeJson()}","dialCode":"${record.dialCode}","flag":"${record.flag.escapeJson()}"},
  {"isoCode":"${record.isoCode}","name":"${record.name.escapeJson()}","dialCode":"${record.dialCode}","flag":"${record.flag.escapeJson()}"},
  {"isoCode":"${record.isoCode}","name":"${record.name.escapeJson()}","dialCode":"${record.dialCode}","flag":"${record.flag.escapeJson()}"},
  {"isoCode":"${record.isoCode}","name":"${record.name.escapeJson()}","dialCode":"${record.dialCode}","flag":"${record.flag.escapeJson()}"},
  {"isoCode":"${record.isoCode}","name":"${record.name.escapeJson()}","dialCode":"${record.dialCode}","flag":"${record.flag.escapeJson()}"},
  {"isoCode":"${record.isoCode}","name":"${record.name.escapeJson()}","dialCode":"${record.dialCode}","flag":"${record.flag.escapeJson()}"},
  {"isoCode":"${record.isoCode}","name":"${record.name.escapeJson()}","dialCode":"${record.dialCode}","flag":"${record.flag.escapeJson()}"},
  {"isoCode":"${record.isoCode}","name":"${record.name.escapeJson()}","dialCode":"${record.dialCode}","flag":"${record.flag.escapeJson()}"},
  {"isoCode":"${record.isoCode}","name":"${record.name.escapeJson()}","dialCode":"${record.dialCode}","flag":"${record.flag.escapeJson()}"},
  {"isoCode":"${record.isoCode}","name":"${record.name.escapeJson()}","dialCode":"${record.dialCode}","flag":"${record.flag.escapeJson()}"},
  {"isoCode":"${record.isoCode}","name":"${record.name.escapeJson()}","dialCode":"${record.dialCode}","flag":"${record.flag.escapeJson()}"},
  {"isoCode":"${record.isoCode}","name":"${record.name.escapeJson()}","dialCode":"${record.dialCode}","flag":"${record.flag.escapeJson()}"},
  {"isoCode":"${record.isoCode}","name":"${record.name.escapeJson()}","dialCode":"${record.dialCode}","flag":"${record.flag.escapeJson()}"},
  {"isoCode":"${record.isoCode}","name":"${record.name.escapeJson()}","dialCode":"${record.dialCode}","flag":"${record.flag.escapeJson()}"},
  {"isoCode":"${record.isoCode}","name":"${record.name.escapeJson()}","dialCode":"${record.dialCode}","flag":"${record.flag.escapeJson()}"},
  {"isoCode":"${record.isoCode}","name":"${record.name.escapeJson()}","dialCode":"${record.dialCode}","flag":"${record.flag.escapeJson()}"},
  {"isoCode":"${record.isoCode}","name":"${record.name.escapeJson()}","dialCode":"${record.dialCode}","flag":"${record.flag.escapeJson()}"},
  {"isoCode":"${record.isoCode}","name":"${record.name.escapeJson()}","dialCode":"${record.dialCode}","flag":"${record.flag.escapeJson()}"},
  {"isoCode":"${record.isoCode}","name":"${record.name.escapeJson()}","dialCode":"${record.dialCode}","flag":"${record.flag.escapeJson()}"},
  {"isoCode":"${record.isoCode}","name":"${record.name.escapeJson()}","dialCode":"${record.dialCode}","flag":"${record.flag.escapeJson()}"},
  {"isoCode":"${record.isoCode}","name":"${record.name.escapeJson()}","dialCode":"${record.dialCode}","flag":"${record.flag.escapeJson()}"},
  {"isoCode":"${record.isoCode}","name":"${record.name.escapeJson()}","dialCode":"${record.dialCode}","flag":"${record.flag.escapeJson()}"},
  {"isoCode":"${record.isoCode}","name":"${record.name.escapeJson()}","dialCode":"${record.dialCode}","flag":"${record.flag.escapeJson()}"},
  {"isoCode":"${record.isoCode}","name":"${record.name.escapeJson()}","dialCode":"${record.dialCode}","flag":"${record.flag.escapeJson()}"},
  {"isoCode":"${record.isoCode}","name":"${record.name.escapeJson()}","dialCode":"${record.dialCode}","flag":"${record.flag.escapeJson()}"},
  {"isoCode":"${record.isoCode}","name":"${record.name.escapeJson()}","dialCode":"${record.dialCode}","flag":"${record.flag.escapeJson()}"},
  {"isoCode":"${record.isoCode}","name":"${record.name.escapeJson()}","dialCode":"${record.dialCode}","flag":"${record.flag.escapeJson()}"},
  {"isoCode":"${record.isoCode}","name":"${record.name.escapeJson()}","dialCode":"${record.dialCode}","flag":"${record.flag.escapeJson()}"},
  {"isoCode":"${record.isoCode}","name":"${record.name.escapeJson()}","dialCode":"${record.dialCode}","flag":"${record.flag.escapeJson()}"},
  {"isoCode":"${record.isoCode}","name":"${record.name.escapeJson()}","dialCode":"${record.dialCode}","flag":"${record.flag.escapeJson()}"},
  {"isoCode":"${record.isoCode}","name":"${record.name.escapeJson()}","dialCode":"${record.dialCode}","flag":"${record.flag.escapeJson()}"},
  {"isoCode":"${record.isoCode}","name":"${record.name.escapeJson()}","dialCode":"${record.dialCode}","flag":"${record.flag.escapeJson()}"},
  {"isoCode":"${record.isoCode}","name":"${record.name.escapeJson()}","dialCode":"${record.dialCode}","flag":"${record.flag.escapeJson()}"},
  {"isoCode":"${record.isoCode}","name":"${record.name.escapeJson()}","dialCode":"${record.dialCode}","flag":"${record.flag.escapeJson()}"},
  {"isoCode":"${record.isoCode}","name":"${record.name.escapeJson()}","dialCode":"${record.dialCode}","flag":"${record.flag.escapeJson()}"},
  {"isoCode":"${record.isoCode}","name":"${record.name.escapeJson()}","dialCode":"${record.dialCode}","flag":"${record.flag.escapeJson()}"},
  {"isoCode":"${record.isoCode}","name":"${record.name.escapeJson()}","dialCode":"${record.dialCode}","flag":"${record.flag.escapeJson()}"},
  {"isoCode":"${record.isoCode}","name":"${record.name.escapeJson()}","dialCode":"${record.dialCode}","flag":"${record.flag.escapeJson()}"},
  {"isoCode":"${record.isoCode}","name":"${record.name.escapeJson()}","dialCode":"${record.dialCode}","flag":"${record.flag.escapeJson()}"},
  {"isoCode":"${record.isoCode}","name":"${record.name.escapeJson()}","dialCode":"${record.dialCode}","flag":"${record.flag.escapeJson()}"},
  {"isoCode":"${record.isoCode}","name":"${record.name.escapeJson()}","dialCode":"${record.dialCode}","flag":"${record.flag.escapeJson()}"},
  {"isoCode":"${record.isoCode}","name":"${record.name.escapeJson()}","dialCode":"${record.dialCode}","flag":"${record.flag.escapeJson()}"},
  {"isoCode":"${record.isoCode}","name":"${record.name.escapeJson()}","dialCode":"${record.dialCode}","flag":"${record.flag.escapeJson()}"},
  {"isoCode":"${record.isoCode}","name":"${record.name.escapeJson()}","dialCode":"${record.dialCode}","flag":"${record.flag.escapeJson()}"},
  {"isoCode":"${record.isoCode}","name":"${record.name.escapeJson()}","dialCode":"${record.dialCode}","flag":"${record.flag.escapeJson()}"},
  {"isoCode":"${record.isoCode}","name":"${record.name.escapeJson()}","dialCode":"${record.dialCode}","flag":"${record.flag.escapeJson()}"},
  {"isoCode":"${record.isoCode}","name":"${record.name.escapeJson()}","dialCode":"${record.dialCode}","flag":"${record.flag.escapeJson()}"},
  {"isoCode":"${record.isoCode}","name":"${record.name.escapeJson()}","dialCode":"${record.dialCode}","flag":"${record.flag.escapeJson()}"},
  {"isoCode":"${record.isoCode}","name":"${record.name.escapeJson()}","dialCode":"${record.dialCode}","flag":"${record.flag.escapeJson()}"},
  {"isoCode":"${record.isoCode}","name":"${record.name.escapeJson()}","dialCode":"${record.dialCode}","flag":"${record.flag.escapeJson()}"},
  {"isoCode":"${record.isoCode}","name":"${record.name.escapeJson()}","dialCode":"${record.dialCode}","flag":"${record.flag.escapeJson()}"},
  {"isoCode":"${record.isoCode}","name":"${record.name.escapeJson()}","dialCode":"${record.dialCode}","flag":"${record.flag.escapeJson()}"},
  {"isoCode":"${record.isoCode}","name":"${record.name.escapeJson()}","dialCode":"${record.dialCode}","flag":"${record.flag.escapeJson()}"},
  {"isoCode":"${record.isoCode}","name":"${record.name.escapeJson()}","dialCode":"${record.dialCode}","flag":"${record.flag.escapeJson()}"},
  {"isoCode":"${record.isoCode}","name":"${record.name.escapeJson()}","dialCode":"${record.dialCode}","flag":"${record.flag.escapeJson()}"},
  {"isoCode":"${record.isoCode}","name":"${record.name.escapeJson()}","dialCode":"${record.dialCode}","flag":"${record.flag.escapeJson()}"},
  {"isoCode":"${record.isoCode}","name":"${record.name.escapeJson()}","dialCode":"${record.dialCode}","flag":"${record.flag.escapeJson()}"},
  {"isoCode":"${record.isoCode}","name":"${record.name.escapeJson()}","dialCode":"${record.dialCode}","flag":"${record.flag.escapeJson()}"},
  {"isoCode":"${record.isoCode}","name":"${record.name.escapeJson()}","dialCode":"${record.dialCode}","flag":"${record.flag.escapeJson()}"},
  {"isoCode":"${record.isoCode}","name":"${record.name.escapeJson()}","dialCode":"${record.dialCode}","flag":"${record.flag.escapeJson()}"},
  {"isoCode":"${record.isoCode}","name":"${record.name.escapeJson()}","dialCode":"${record.dialCode}","flag":"${record.flag.escapeJson()}"},
  {"isoCode":"${record.isoCode}","name":"${record.name.escapeJson()}","dialCode":"${record.dialCode}","flag":"${record.flag.escapeJson()}"},
  {"isoCode":"${record.isoCode}","name":"${record.name.escapeJson()}","dialCode":"${record.dialCode}","flag":"${record.flag.escapeJson()}"},
  {"isoCode":"${record.isoCode}","name":"${record.name.escapeJson()}","dialCode":"${record.dialCode}","flag":"${record.flag.escapeJson()}"},
  {"isoCode":"${record.isoCode}","name":"${record.name.escapeJson()}","dialCode":"${record.dialCode}","flag":"${record.flag.escapeJson()}"},
  {"isoCode":"${record.isoCode}","name":"${record.name.escapeJson()}","dialCode":"${record.dialCode}","flag":"${record.flag.escapeJson()}"},
  {"isoCode":"${record.isoCode}","name":"${record.name.escapeJson()}","dialCode":"${record.dialCode}","flag":"${record.flag.escapeJson()}"},
  {"isoCode":"${record.isoCode}","name":"${record.name.escapeJson()}","dialCode":"${record.dialCode}","flag":"${record.flag.escapeJson()}"},
  {"isoCode":"${record.isoCode}","name":"${record.name.escapeJson()}","dialCode":"${record.dialCode}","flag":"${record.flag.escapeJson()}"},
  {"isoCode":"${record.isoCode}","name":"${record.name.escapeJson()}","dialCode":"${record.dialCode}","flag":"${record.flag.escapeJson()}"},
  {"isoCode":"${record.isoCode}","name":"${record.name.escapeJson()}","dialCode":"${record.dialCode}","flag":"${record.flag.escapeJson()}"},
  {"isoCode":"${record.isoCode}","name":"${record.name.escapeJson()}","dialCode":"${record.dialCode}","flag":"${record.flag.escapeJson()}"},
  {"isoCode":"${record.isoCode}","name":"${record.name.escapeJson()}","dialCode":"${record.dialCode}","flag":"${record.flag.escapeJson()}"},
  {"isoCode":"${record.isoCode}","name":"${record.name.escapeJson()}","dialCode":"${record.dialCode}","flag":"${record.flag.escapeJson()}"},
  {"isoCode":"${record.isoCode}","name":"${record.name.escapeJson()}","dialCode":"${record.dialCode}","flag":"${record.flag.escapeJson()}"},
  {"isoCode":"${record.isoCode}","name":"${record.name.escapeJson()}","dialCode":"${record.dialCode}","flag":"${record.flag.escapeJson()}"},
  {"isoCode":"${record.isoCode}","name":"${record.name.escapeJson()}","dialCode":"${record.dialCode}","flag":"${record.flag.escapeJson()}"},
  {"isoCode":"${record.isoCode}","name":"${record.name.escapeJson()}","dialCode":"${record.dialCode}","flag":"${record.flag.escapeJson()}"},
  {"isoCode":"${record.isoCode}","name":"${record.name.escapeJson()}","dialCode":"${record.dialCode}","flag":"${record.flag.escapeJson()}"},
  {"isoCode":"${record.isoCode}","name":"${record.name.escapeJson()}","dialCode":"${record.dialCode}","flag":"${record.flag.escapeJson()}"},
  {"isoCode":"${record.isoCode}","name":"${record.name.escapeJson()}","dialCode":"${record.dialCode}","flag":"${record.flag.escapeJson()}"},
  {"isoCode":"${record.isoCode}","name":"${record.name.escapeJson()}","dialCode":"${record.dialCode}","flag":"${record.flag.escapeJson()}"},
  {"isoCode":"${record.isoCode}","name":"${record.name.escapeJson()}","dialCode":"${record.dialCode}","flag":"${record.flag.escapeJson()}"},
  {"isoCode":"${record.isoCode}","name":"${record.name.escapeJson()}","dialCode":"${record.dialCode}","flag":"${record.flag.escapeJson()}"},
  {"isoCode":"${record.isoCode}","name":"${record.name.escapeJson()}","dialCode":"${record.dialCode}","flag":"${record.flag.escapeJson()}"},
  {"isoCode":"${record.isoCode}","name":"${record.name.escapeJson()}","dialCode":"${record.dialCode}","flag":"${record.flag.escapeJson()}"},
  {"isoCode":"${record.isoCode}","name":"${record.name.escapeJson()}","dialCode":"${record.dialCode}","flag":"${record.flag.escapeJson()}"},
  {"isoCode":"${record.isoCode}","name":"${record.name.escapeJson()}","dialCode":"${record.dialCode}","flag":"${record.flag.escapeJson()}"},
  {"isoCode":"${record.isoCode}","name":"${record.name.escapeJson()}","dialCode":"${record.dialCode}","flag":"${record.flag.escapeJson()}"},
  {"isoCode":"${record.isoCode}","name":"${record.name.escapeJson()}","dialCode":"${record.dialCode}","flag":"${record.flag.escapeJson()}"},
  {"isoCode":"${record.isoCode}","name":"${record.name.escapeJson()}","dialCode":"${record.dialCode}","flag":"${record.flag.escapeJson()}"},
  {"isoCode":"${record.isoCode}","name":"${record.name.escapeJson()}","dialCode":"${record.dialCode}","flag":"${record.flag.escapeJson()}"},
  {"isoCode":"${record.isoCode}","name":"${record.name.escapeJson()}","dialCode":"${record.dialCode}","flag":"${record.flag.escapeJson()}"},
  {"isoCode":"${record.isoCode}","name":"${record.name.escapeJson()}","dialCode":"${record.dialCode}","flag":"${record.flag.escapeJson()}"},
  {"isoCode":"${record.isoCode}","name":"${record.name.escapeJson()}","dialCode":"${record.dialCode}","flag":"${record.flag.escapeJson()}"},
  {"isoCode":"${record.isoCode}","name":"${record.name.escapeJson()}","dialCode":"${record.dialCode}","flag":"${record.flag.escapeJson()}"},
  {"isoCode":"${record.isoCode}","name":"${record.name.escapeJson()}","dialCode":"${record.dialCode}","flag":"${record.flag.escapeJson()}"},
  {"isoCode":"${record.isoCode}","name":"${record.name.escapeJson()}","dialCode":"${record.dialCode}","flag":"${record.flag.escapeJson()}"},
  {"isoCode":"${record.isoCode}","name":"${record.name.escapeJson()}","dialCode":"${record.dialCode}","flag":"${record.flag.escapeJson()}"},
  {"isoCode":"${record.isoCode}","name":"${record.name.escapeJson()}","dialCode":"${record.dialCode}","flag":"${record.flag.escapeJson()}"},
  {"isoCode":"${record.isoCode}","name":"${record.name.escapeJson()}","dialCode":"${record.dialCode}","flag":"${record.flag.escapeJson()}"},
  {"isoCode":"${record.isoCode}","name":"${record.name.escapeJson()}","dialCode":"${record.dialCode}","flag":"${record.flag.escapeJson()}"},
  {"isoCode":"${record.isoCode}","name":"${record.name.escapeJson()}","dialCode":"${record.dialCode}","flag":"${record.flag.escapeJson()}"},
  {"isoCode":"${record.isoCode}","name":"${record.name.escapeJson()}","dialCode":"${record.dialCode}","flag":"${record.flag.escapeJson()}"},
  {"isoCode":"${record.isoCode}","name":"${record.name.escapeJson()}","dialCode":"${record.dialCode}","flag":"${record.flag.escapeJson()}"},
  {"isoCode":"${record.isoCode}","name":"${record.name.escapeJson()}","dialCode":"${record.dialCode}","flag":"${record.flag.escapeJson()}"},
  {"isoCode":"${record.isoCode}","name":"${record.name.escapeJson()}","dialCode":"${record.dialCode}","flag":"${record.flag.escapeJson()}"},
  {"isoCode":"${record.isoCode}","name":"${record.name.escapeJson()}","dialCode":"${record.dialCode}","flag":"${record.flag.escapeJson()}"},
  {"isoCode":"${record.isoCode}","name":"${record.name.escapeJson()}","dialCode":"${record.dialCode}","flag":"${record.flag.escapeJson()}"},
  {"isoCode":"${record.isoCode}","name":"${record.name.escapeJson()}","dialCode":"${record.dialCode}","flag":"${record.flag.escapeJson()}"},
  {"isoCode":"${record.isoCode}","name":"${record.name.escapeJson()}","dialCode":"${record.dialCode}","flag":"${record.flag.escapeJson()}"},
  {"isoCode":"${record.isoCode}","name":"${record.name.escapeJson()}","dialCode":"${record.dialCode}","flag":"${record.flag.escapeJson()}"},
  {"isoCode":"${record.isoCode}","name":"${record.name.escapeJson()}","dialCode":"${record.dialCode}","flag":"${record.flag.escapeJson()}"},
  {"isoCode":"${record.isoCode}","name":"${record.name.escapeJson()}","dialCode":"${record.dialCode}","flag":"${record.flag.escapeJson()}"},
  {"isoCode":"${record.isoCode}","name":"${record.name.escapeJson()}","dialCode":"${record.dialCode}","flag":"${record.flag.escapeJson()}"},
  {"isoCode":"${record.isoCode}","name":"${record.name.escapeJson()}","dialCode":"${record.dialCode}","flag":"${record.flag.escapeJson()}"},
  {"isoCode":"${record.isoCode}","name":"${record.name.escapeJson()}","dialCode":"${record.dialCode}","flag":"${record.flag.escapeJson()}"},
  {"isoCode":"${record.isoCode}","name":"${record.name.escapeJson()}","dialCode":"${record.dialCode}","flag":"${record.flag.escapeJson()}"},
  {"isoCode":"${record.isoCode}","name":"${record.name.escapeJson()}","dialCode":"${record.dialCode}","flag":"${record.flag.escapeJson()}"},
  {"isoCode":"${record.isoCode}","name":"${record.name.escapeJson()}","dialCode":"${record.dialCode}","flag":"${record.flag.escapeJson()}"},
  {"isoCode":"${record.isoCode}","name":"${record.name.escapeJson()}","dialCode":"${record.dialCode}","flag":"${record.flag.escapeJson()}"},
  {"isoCode":"${record.isoCode}","name":"${record.name.escapeJson()}","dialCode":"${record.dialCode}","flag":"${record.flag.escapeJson()}"},
  {"isoCode":"${record.isoCode}","name":"${record.name.escapeJson()}","dialCode":"${record.dialCode}","flag":"${record.flag.escapeJson()}"},
  {"isoCode":"${record.isoCode}","name":"${record.name.escapeJson()}","dialCode":"${record.dialCode}","flag":"${record.flag.escapeJson()}"},
  {"isoCode":"${record.isoCode}","name":"${record.name.escapeJson()}","dialCode":"${record.dialCode}","flag":"${record.flag.escapeJson()}"},
  {"isoCode":"${record.isoCode}","name":"${record.name.escapeJson()}","dialCode":"${record.dialCode}","flag":"${record.flag.escapeJson()}"},
  {"isoCode":"${record.isoCode}","name":"${record.name.escapeJson()}","dialCode":"${record.dialCode}","flag":"${record.flag.escapeJson()}"},
  {"isoCode":"${record.isoCode}","name":"${record.name.escapeJson()}","dialCode":"${record.dialCode}","flag":"${record.flag.escapeJson()}"},
  {"isoCode":"${record.isoCode}","name":"${record.name.escapeJson()}","dialCode":"${record.dialCode}","flag":"${record.flag.escapeJson()}"},
  {"isoCode":"${record.isoCode}","name":"${record.name.escapeJson()}","dialCode":"${record.dialCode}","flag":"${record.flag.escapeJson()}"},
  {"isoCode":"${record.isoCode}","name":"${record.name.escapeJson()}","dialCode":"${record.dialCode}","flag":"${record.flag.escapeJson()}"},
  {"isoCode":"${record.isoCode}","name":"${record.name.escapeJson()}","dialCode":"${record.dialCode}","flag":"${record.flag.escapeJson()}"},
  {"isoCode":"${record.isoCode}","name":"${record.name.escapeJson()}","dialCode":"${record.dialCode}","flag":"${record.flag.escapeJson()}"},
  {"isoCode":"${record.isoCode}","name":"${record.name.escapeJson()}","dialCode":"${record.dialCode}","flag":"${record.flag.escapeJson()}"},
  {"isoCode":"${record.isoCode}","name":"${record.name.escapeJson()}","dialCode":"${record.dialCode}","flag":"${record.flag.escapeJson()}"},
  {"isoCode":"${record.isoCode}","name":"${record.name.escapeJson()}","dialCode":"${record.dialCode}","flag":"${record.flag.escapeJson()}"},
  {"isoCode":"${record.isoCode}","name":"${record.name.escapeJson()}","dialCode":"${record.dialCode}","flag":"${record.flag.escapeJson()}"},
  {"isoCode":"${record.isoCode}","name":"${record.name.escapeJson()}","dialCode":"${record.dialCode}","flag":"${record.flag.escapeJson()}"},
  {"isoCode":"${record.isoCode}","name":"${record.name.escapeJson()}","dialCode":"${record.dialCode}","flag":"${record.flag.escapeJson()}"},
  {"isoCode":"${record.isoCode}","name":"${record.name.escapeJson()}","dialCode":"${record.dialCode}","flag":"${record.flag.escapeJson()}"},
  {"isoCode":"${record.isoCode}","name":"${record.name.escapeJson()}","dialCode":"${record.dialCode}","flag":"${record.flag.escapeJson()}"},
  {"isoCode":"${record.isoCode}","name":"${record.name.escapeJson()}","dialCode":"${record.dialCode}","flag":"${record.flag.escapeJson()}"},
  {"isoCode":"${record.isoCode}","name":"${record.name.escapeJson()}","dialCode":"${record.dialCode}","flag":"${record.flag.escapeJson()}"},
  {"isoCode":"${record.isoCode}","name":"${record.name.escapeJson()}","dialCode":"${record.dialCode}","flag":"${record.flag.escapeJson()}"},
  {"isoCode":"${record.isoCode}","name":"${record.name.escapeJson()}","dialCode":"${record.dialCode}","flag":"${record.flag.escapeJson()}"},
  {"isoCode":"${record.isoCode}","name":"${record.name.escapeJson()}","dialCode":"${record.dialCode}","flag":"${record.flag.escapeJson()}"},
  {"isoCode":"${record.isoCode}","name":"${record.name.escapeJson()}","dialCode":"${record.dialCode}","flag":"${record.flag.escapeJson()}"},
  {"isoCode":"${record.isoCode}","name":"${record.name.escapeJson()}","dialCode":"${record.dialCode}","flag":"${record.flag.escapeJson()}"},
  {"isoCode":"${record.isoCode}","name":"${record.name.escapeJson()}","dialCode":"${record.dialCode}","flag":"${record.flag.escapeJson()}"},
  {"isoCode":"${record.isoCode}","name":"${record.name.escapeJson()}","dialCode":"${record.dialCode}","flag":"${record.flag.escapeJson()}"},
  {"isoCode":"${record.isoCode}","name":"${record.name.escapeJson()}","dialCode":"${record.dialCode}","flag":"${record.flag.escapeJson()}"},
  {"isoCode":"${record.isoCode}","name":"${record.name.escapeJson()}","dialCode":"${record.dialCode}","flag":"${record.flag.escapeJson()}"},
  {"isoCode":"${record.isoCode}","name":"${record.name.escapeJson()}","dialCode":"${record.dialCode}","flag":"${record.flag.escapeJson()}"},
  {"isoCode":"${record.isoCode}","name":"${record.name.escapeJson()}","dialCode":"${record.dialCode}","flag":"${record.flag.escapeJson()}"},
  {"isoCode":"${record.isoCode}","name":"${record.name.escapeJson()}","dialCode":"${record.dialCode}","flag":"${record.flag.escapeJson()}"},
  {"isoCode":"${record.isoCode}","name":"${record.name.escapeJson()}","dialCode":"${record.dialCode}","flag":"${record.flag.escapeJson()}"},
  {"isoCode":"${record.isoCode}","name":"${record.name.escapeJson()}","dialCode":"${record.dialCode}","flag":"${record.flag.escapeJson()}"},
  {"isoCode":"${record.isoCode}","name":"${record.name.escapeJson()}","dialCode":"${record.dialCode}","flag":"${record.flag.escapeJson()}"},
  {"isoCode":"${record.isoCode}","name":"${record.name.escapeJson()}","dialCode":"${record.dialCode}","flag":"${record.flag.escapeJson()}"},
  {"isoCode":"${record.isoCode}","name":"${record.name.escapeJson()}","dialCode":"${record.dialCode}","flag":"${record.flag.escapeJson()}"},
  {"isoCode":"${record.isoCode}","name":"${record.name.escapeJson()}","dialCode":"${record.dialCode}","flag":"${record.flag.escapeJson()}"},
  {"isoCode":"${record.isoCode}","name":"${record.name.escapeJson()}","dialCode":"${record.dialCode}","flag":"${record.flag.escapeJson()}"},
  {"isoCode":"${record.isoCode}","name":"${record.name.escapeJson()}","dialCode":"${record.dialCode}","flag":"${record.flag.escapeJson()}"},
  {"isoCode":"${record.isoCode}","name":"${record.name.escapeJson()}","dialCode":"${record.dialCode}","flag":"${record.flag.escapeJson()}"},
  {"isoCode":"${record.isoCode}","name":"${record.name.escapeJson()}","dialCode":"${record.dialCode}","flag":"${record.flag.escapeJson()}"},
  {"isoCode":"${record.isoCode}","name":"${record.name.escapeJson()}","dialCode":"${record.dialCode}","flag":"${record.flag.escapeJson()}"},
  {"isoCode":"${record.isoCode}","name":"${record.name.escapeJson()}","dialCode":"${record.dialCode}","flag":"${record.flag.escapeJson()}"},
  {"isoCode":"${record.isoCode}","name":"${record.name.escapeJson()}","dialCode":"${record.dialCode}","flag":"${record.flag.escapeJson()}"},
  {"isoCode":"${record.isoCode}","name":"${record.name.escapeJson()}","dialCode":"${record.dialCode}","flag":"${record.flag.escapeJson()}"},
  {"isoCode":"${record.isoCode}","name":"${record.name.escapeJson()}","dialCode":"${record.dialCode}","flag":"${record.flag.escapeJson()}"},
  {"isoCode":"${record.isoCode}","name":"${record.name.escapeJson()}","dialCode":"${record.dialCode}","flag":"${record.flag.escapeJson()}"},
  {"isoCode":"${record.isoCode}","name":"${record.name.escapeJson()}","dialCode":"${record.dialCode}","flag":"${record.flag.escapeJson()}"},
  {"isoCode":"${record.isoCode}","name":"${record.name.escapeJson()}","dialCode":"${record.dialCode}","flag":"${record.flag.escapeJson()}"},
  {"isoCode":"${record.isoCode}","name":"${record.name.escapeJson()}","dialCode":"${record.dialCode}","flag":"${record.flag.escapeJson()}"},
  {"isoCode":"${record.isoCode}","name":"${record.name.escapeJson()}","dialCode":"${record.dialCode}","flag":"${record.flag.escapeJson()}"},
  {"isoCode":"${record.isoCode}","name":"${record.name.escapeJson()}","dialCode":"${record.dialCode}","flag":"${record.flag.escapeJson()}"},
  {"isoCode":"${record.isoCode}","name":"${record.name.escapeJson()}","dialCode":"${record.dialCode}","flag":"${record.flag.escapeJson()}"},
  {"isoCode":"${record.isoCode}","name":"${record.name.escapeJson()}","dialCode":"${record.dialCode}","flag":"${record.flag.escapeJson()}"},
  {"isoCode":"${record.isoCode}","name":"${record.name.escapeJson()}","dialCode":"${record.dialCode}","flag":"${record.flag.escapeJson()}"},
  {"isoCode":"${record.isoCode}","name":"${record.name.escapeJson()}","dialCode":"${record.dialCode}","flag":"${record.flag.escapeJson()}"},
  {"isoCode":"${record.isoCode}","name":"${record.name.escapeJson()}","dialCode":"${record.dialCode}","flag":"${record.flag.escapeJson()}"},
  {"isoCode":"${record.isoCode}","name":"${record.name.escapeJson()}","dialCode":"${record.dialCode}","flag":"${record.flag.escapeJson()}"},
  {"isoCode":"${record.isoCode}","name":"${record.name.escapeJson()}","dialCode":"${record.dialCode}","flag":"${record.flag.escapeJson()}"},
  {"isoCode":"${record.isoCode}","name":"${record.name.escapeJson()}","dialCode":"${record.dialCode}","flag":"${record.flag.escapeJson()}"},
  {"isoCode":"${record.isoCode}","name":"${record.name.escapeJson()}","dialCode":"${record.dialCode}","flag":"${record.flag.escapeJson()}"},
  {"isoCode":"${record.isoCode}","name":"${record.name.escapeJson()}","dialCode":"${record.dialCode}","flag":"${record.flag.escapeJson()}"},
  {"isoCode":"${record.isoCode}","name":"${record.name.escapeJson()}","dialCode":"${record.dialCode}","flag":"${record.flag.escapeJson()}"},
  {"isoCode":"${record.isoCode}","name":"${record.name.escapeJson()}","dialCode":"${record.dialCode}","flag":"${record.flag.escapeJson()}"},
  {"isoCode":"${record.isoCode}","name":"${record.name.escapeJson()}","dialCode":"${record.dialCode}","flag":"${record.flag.escapeJson()}"},
  {"isoCode":"${record.isoCode}","name":"${record.name.escapeJson()}","dialCode":"${record.dialCode}","flag":"${record.flag.escapeJson()}"},
  {"isoCode":"${record.isoCode}","name":"${record.name.escapeJson()}","dialCode":"${record.dialCode}","flag":"${record.flag.escapeJson()}"},
  {"isoCode":"${record.isoCode}","name":"${record.name.escapeJson()}","dialCode":"${record.dialCode}","flag":"${record.flag.escapeJson()}"},
  {"isoCode":"${record.isoCode}","name":"${record.name.escapeJson()}","dialCode":"${record.dialCode}","flag":"${record.flag.escapeJson()}"},
  {"isoCode":"${record.isoCode}","name":"${record.name.escapeJson()}","dialCode":"${record.dialCode}","flag":"${record.flag.escapeJson()}"},
  {"isoCode":"${record.isoCode}","name":"${record.name.escapeJson()}","dialCode":"${record.dialCode}","flag":"${record.flag.escapeJson()}"},
  {"isoCode":"${record.isoCode}","name":"${record.name.escapeJson()}","dialCode":"${record.dialCode}","flag":"${record.flag.escapeJson()}"},
  {"isoCode":"${record.isoCode}","name":"${record.name.escapeJson()}","dialCode":"${record.dialCode}","flag":"${record.flag.escapeJson()}"},
  {"isoCode":"${record.isoCode}","name":"${record.name.escapeJson()}","dialCode":"${record.dialCode}","flag":"${record.flag.escapeJson()}"},
  {"isoCode":"${record.isoCode}","name":"${record.name.escapeJson()}","dialCode":"${record.dialCode}","flag":"${record.flag.escapeJson()}"},
  {"isoCode":"${record.isoCode}","name":"${record.name.escapeJson()}","dialCode":"${record.dialCode}","flag":"${record.flag.escapeJson()}"}
]
